*******************************************************************************
Ephemeris / WWW_USER Mon Jul 15 19:30:10 2024 Pasadena, USA      / Horizons    
*******************************************************************************
Target body name: Hale-Bopp (C/1995 O1)           {source: JPL#226}
Center body name: Earth (399)                     {source: DE441}
Center-site name: Gemini South Obs., Cerro Pachon
*******************************************************************************
Start time      : A.D. 2018-Dec-14 23:49:00.0000 UT      
Stop  time      : A.D. 2018-Dec-15 09:26:00.0000 UT      
Step-size       : 1 minutes
*******************************************************************************
Target pole/equ : undefined
Target radii    : 30. km                                                       
Center geodetic : 289.2634, -30.2406227, 2.71233  {E-lon(deg),Lat(deg),Alt(km)}
Center cylindric: 289.2634,5517.21435,-3194.81213 {E-lon(deg),Dxy(km),Dz(km)}
Center pole/equ : ITRF93                          {East-longitude positive}
Center radii    : 6378.137, 6378.137, 6356.752 km {Equator_a, b, pole_c}       
Target primary  : Sun
Vis. interferer : MOON (R_eq= 1737.400) km        {source: DE441}
Rel. light bend : Sun                             {source: DE441}
Rel. lght bnd GM: 1.3271E+11 km^3/s^2                                          
Small-body perts: Yes                             {source: SB441-N16}
Atmos refraction: NO (AIRLESS)
RA format       : HMS
Time format     : CAL 
Calendar mode   : Mixed Julian/Gregorian
RTS-only print  : NO       
EOP file        : eop.240715.p241008                                           
EOP coverage    : DATA-BASED 1962-JAN-20 TO 2024-JUL-15. PREDICTS-> 2024-OCT-07
Units conversion: 1 au= 149597870.700 km, c= 299792.458 km/s, 1 day= 86400.0 s 
Table cut-offs 1: Elevation (-90.0deg=NO ),Airmass (>38.000=NO), Daylight (YES)
Table cut-offs 2: Solar elongation (  0.0,180.0=NO ),Local Hour Angle( 0.0=NO )
Table cut-offs 3: RA/DEC angular rate (     0.0=NO )                           
*******************************************************************************
Initial IAU76/J2000 heliocentric ecliptic osculating elements (au, days, deg.):
  EPOCH=  2459837.5 ! 2022-Sep-15.0000000 (TDB)    RMSW= n.a.                  
   EC= .9949810027633206   QR= .890537663547794    TP= 2450537.1349071441      
   OM= 282.7334213961641   W= 130.4146670659176    IN= 89.28759424740302       
  Equivalent ICRF heliocentric cartesian coordinates (au, au/d):
   X= 3.907631452214869E+00  Y=-1.373895334060347E+00  Z=-4.624358508575312E+01
  VX= 3.778244409519935E-04 VY=-5.803173067116371E-04 VZ=-3.255716412104052E-03
Comet physical (GM= km^3/s^2; RAD= km):                                        
   GM= n.a.                RAD= 30.                                            
   M1=  4.8      M2=  n.a.     k1=  4.     k2= n.a.     PHCOF= n.a.            
*******************************************************************************
 Date__(UT)__HR:MN     R.A._________(ICRF)_________DEC
******************************************************
$$SOE
 2018-Dec-15 01:53  m  22 22 48.576937 -85 09 20.32744
 2018-Dec-15 01:54  m  22 22 48.590110 -85 09 20.26971
 2018-Dec-15 01:55  m  22 22 48.603287 -85 09 20.21198
 2018-Dec-15 01:56  m  22 22 48.616467 -85 09 20.15425
 2018-Dec-15 01:57  m  22 22 48.629649 -85 09 20.09652
 2018-Dec-15 01:58  m  22 22 48.642835 -85 09 20.03878
 2018-Dec-15 01:59  m  22 22 48.656023 -85 09 19.98105
 2018-Dec-15 02:00  m  22 22 48.669214 -85 09 19.92331
 2018-Dec-15 02:01  m  22 22 48.682408 -85 09 19.86557
 2018-Dec-15 02:02  m  22 22 48.695605 -85 09 19.80783
 2018-Dec-15 02:03  m  22 22 48.708805 -85 09 19.75009
 2018-Dec-15 02:04  m  22 22 48.722008 -85 09 19.69235
 2018-Dec-15 02:05  m  22 22 48.735214 -85 09 19.63461
 2018-Dec-15 02:06  m  22 22 48.748423 -85 09 19.57686
 2018-Dec-15 02:07  m  22 22 48.761635 -85 09 19.51912
 2018-Dec-15 02:08  m  22 22 48.774850 -85 09 19.46137
 2018-Dec-15 02:09  m  22 22 48.788067 -85 09 19.40362
 2018-Dec-15 02:10  m  22 22 48.801288 -85 09 19.34588
 2018-Dec-15 02:11  m  22 22 48.814511 -85 09 19.28813
 2018-Dec-15 02:12  m  22 22 48.827738 -85 09 19.23038
 2018-Dec-15 02:13  m  22 22 48.840968 -85 09 19.17263
 2018-Dec-15 02:14  m  22 22 48.854200 -85 09 19.11487
 2018-Dec-15 02:15  m  22 22 48.867436 -85 09 19.05712
 2018-Dec-15 02:16  m  22 22 48.880674 -85 09 18.99937
 2018-Dec-15 02:17  m  22 22 48.893915 -85 09 18.94161
 2018-Dec-15 02:18  m  22 22 48.907160 -85 09 18.88385
 2018-Dec-15 02:19  m  22 22 48.920407 -85 09 18.82610
 2018-Dec-15 02:20  m  22 22 48.933658 -85 09 18.76834
 2018-Dec-15 02:21  m  22 22 48.946911 -85 09 18.71058
 2018-Dec-15 02:22  m  22 22 48.960168 -85 09 18.65282
 2018-Dec-15 02:23  m  22 22 48.973427 -85 09 18.59506
 2018-Dec-15 02:24  m  22 22 48.986690 -85 09 18.53730
 2018-Dec-15 02:25  m  22 22 48.999955 -85 09 18.47954
 2018-Dec-15 02:26  m  22 22 49.013224 -85 09 18.42177
 2018-Dec-15 02:27  m  22 22 49.026495 -85 09 18.36401
 2018-Dec-15 02:28  m  22 22 49.039770 -85 09 18.30624
 2018-Dec-15 02:29  m  22 22 49.053047 -85 09 18.24848
 2018-Dec-15 02:30  m  22 22 49.066328 -85 09 18.19071
 2018-Dec-15 02:31  m  22 22 49.079612 -85 09 18.13294
 2018-Dec-15 02:32  m  22 22 49.092898 -85 09 18.07518
 2018-Dec-15 02:33  m  22 22 49.106188 -85 09 18.01741
 2018-Dec-15 02:34  m  22 22 49.119481 -85 09 17.95964
 2018-Dec-15 02:35  m  22 22 49.132777 -85 09 17.90187
 2018-Dec-15 02:36  m  22 22 49.146076 -85 09 17.84410
 2018-Dec-15 02:37  m  22 22 49.159378 -85 09 17.78633
 2018-Dec-15 02:38  m  22 22 49.172683 -85 09 17.72855
 2018-Dec-15 02:39  m  22 22 49.185991 -85 09 17.67078
 2018-Dec-15 02:40  m  22 22 49.199302 -85 09 17.61301
 2018-Dec-15 02:41  m  22 22 49.212616 -85 09 17.55523
 2018-Dec-15 02:42  m  22 22 49.225933 -85 09 17.49746
 2018-Dec-15 02:43  m  22 22 49.239253 -85 09 17.43968
 2018-Dec-15 02:44  m  22 22 49.252577 -85 09 17.38191
 2018-Dec-15 02:45  m  22 22 49.265903 -85 09 17.32413
 2018-Dec-15 02:46  m  22 22 49.279233 -85 09 17.26636
 2018-Dec-15 02:47  m  22 22 49.292566 -85 09 17.20858
 2018-Dec-15 02:48  m  22 22 49.305901 -85 09 17.15080
 2018-Dec-15 02:49  m  22 22 49.319240 -85 09 17.09302
 2018-Dec-15 02:50  m  22 22 49.332582 -85 09 17.03524
 2018-Dec-15 02:51  m  22 22 49.345927 -85 09 16.97746
 2018-Dec-15 02:52  m  22 22 49.359275 -85 09 16.91968
 2018-Dec-15 02:53  m  22 22 49.372626 -85 09 16.86190
 2018-Dec-15 02:54  m  22 22 49.385980 -85 09 16.80412
 2018-Dec-15 02:55  m  22 22 49.399338 -85 09 16.74634
 2018-Dec-15 02:56  m  22 22 49.412698 -85 09 16.68856
 2018-Dec-15 02:57  m  22 22 49.426062 -85 09 16.63078
 2018-Dec-15 02:58  m  22 22 49.439428 -85 09 16.57300
 2018-Dec-15 02:59  m  22 22 49.452798 -85 09 16.51522
 2018-Dec-15 03:00  m  22 22 49.466171 -85 09 16.45743
 2018-Dec-15 03:01  m  22 22 49.479547 -85 09 16.39965
 2018-Dec-15 03:02  m  22 22 49.492926 -85 09 16.34187
 2018-Dec-15 03:03  m  22 22 49.506308 -85 09 16.28408
 2018-Dec-15 03:04  m  22 22 49.519694 -85 09 16.22630
 2018-Dec-15 03:05  m  22 22 49.533082 -85 09 16.16852
 2018-Dec-15 03:06  m  22 22 49.546473 -85 09 16.11073
 2018-Dec-15 03:07  m  22 22 49.559868 -85 09 16.05295
 2018-Dec-15 03:08  m  22 22 49.573266 -85 09 15.99516
 2018-Dec-15 03:09  m  22 22 49.586667 -85 09 15.93738
 2018-Dec-15 03:10  m  22 22 49.600071 -85 09 15.87959
 2018-Dec-15 03:11  m  22 22 49.613478 -85 09 15.82181
 2018-Dec-15 03:12  m  22 22 49.626888 -85 09 15.76402
 2018-Dec-15 03:13  m  22 22 49.640302 -85 09 15.70623
 2018-Dec-15 03:14  m  22 22 49.653718 -85 09 15.64845
 2018-Dec-15 03:15  m  22 22 49.667138 -85 09 15.59066
 2018-Dec-15 03:16  m  22 22 49.680560 -85 09 15.53288
 2018-Dec-15 03:17  m  22 22 49.693986 -85 09 15.47509
 2018-Dec-15 03:18  m  22 22 49.707415 -85 09 15.41730
 2018-Dec-15 03:19  m  22 22 49.720847 -85 09 15.35952
 2018-Dec-15 03:20  m  22 22 49.734283 -85 09 15.30173
 2018-Dec-15 03:21  m  22 22 49.747721 -85 09 15.24395
 2018-Dec-15 03:22  m  22 22 49.761163 -85 09 15.18616
 2018-Dec-15 03:23  m  22 22 49.774607 -85 09 15.12837
 2018-Dec-15 03:24  m  22 22 49.788055 -85 09 15.07059
 2018-Dec-15 03:25  m  22 22 49.801506 -85 09 15.01280
 2018-Dec-15 03:26  m  22 22 49.814960 -85 09 14.95502
 2018-Dec-15 03:27  m  22 22 49.828417 -85 09 14.89723
 2018-Dec-15 03:28  m  22 22 49.841877 -85 09 14.83944
 2018-Dec-15 03:29  m  22 22 49.855341 -85 09 14.78166
 2018-Dec-15 03:30  m  22 22 49.868807 -85 09 14.72387
 2018-Dec-15 03:31  m  22 22 49.882277 -85 09 14.66609
 2018-Dec-15 03:32  m  22 22 49.895750 -85 09 14.60830
 2018-Dec-15 03:33  m  22 22 49.909226 -85 09 14.55052
 2018-Dec-15 03:34  m  22 22 49.922705 -85 09 14.49273
 2018-Dec-15 03:35  m  22 22 49.936187 -85 09 14.43495
 2018-Dec-15 03:36  m  22 22 49.949673 -85 09 14.37716
 2018-Dec-15 03:37  m  22 22 49.963161 -85 09 14.31938
 2018-Dec-15 03:38  m  22 22 49.976653 -85 09 14.26159
 2018-Dec-15 03:39  m  22 22 49.990148 -85 09 14.20381
 2018-Dec-15 03:40  m  22 22 50.003645 -85 09 14.14602
 2018-Dec-15 03:41  m  22 22 50.017147 -85 09 14.08824
 2018-Dec-15 03:42  m  22 22 50.030651 -85 09 14.03046
 2018-Dec-15 03:43  m  22 22 50.044158 -85 09 13.97268
 2018-Dec-15 03:44  m  22 22 50.057668 -85 09 13.91489
 2018-Dec-15 03:45  m  22 22 50.071182 -85 09 13.85711
 2018-Dec-15 03:46  m  22 22 50.084699 -85 09 13.79933
 2018-Dec-15 03:47  m  22 22 50.098218 -85 09 13.74155
 2018-Dec-15 03:48  m  22 22 50.111741 -85 09 13.68377
 2018-Dec-15 03:49  m  22 22 50.125267 -85 09 13.62599
 2018-Dec-15 03:50  m  22 22 50.138797 -85 09 13.56821
 2018-Dec-15 03:51  m  22 22 50.152329 -85 09 13.51043
 2018-Dec-15 03:52  m  22 22 50.165864 -85 09 13.45265
 2018-Dec-15 03:53  m  22 22 50.179403 -85 09 13.39487
 2018-Dec-15 03:54  m  22 22 50.192944 -85 09 13.33709
 2018-Dec-15 03:55  m  22 22 50.206489 -85 09 13.27931
 2018-Dec-15 03:56  m  22 22 50.220037 -85 09 13.22154
